CTC2_L_00003016-03
1 44804U 24522JO  26070.40841435  .00000000  00000+0  00000-0 0  9998
2 44804  85.0000 180.0000 0000000   0.0000   0.0000 15.90815360    13
CTC2_L_00003016-04
1 44805U 26123KZ  26070.40841435  .00000000  00000+0  00000-0 0  9998
2 44805  85.0000 180.0000 0000000   0.0000  90.0000 15.90815360    13
CTC2_L_00003017-01
1 44806U 24403KT  26070.40841435  .00000000  00000+0  00000-0 0  9998
2 44806  85.0000 192.0000 0000000   0.0000 192.0000 15.90815360    10
CTC2_L_00003017-02
1 44807U 25305AP  26070.40841435  .00000000  00000+0  00000-0 0  9991
2 44807  85.0000 192.0000 0000000   0.0000 282.0000 15.90815360    11
CTC2_L_00003017-03
1 44808U 24443HB  26070.40841435  .00000000  00000+0  00000-0 0  9994
2 44808  85.0000 192.0000 0000000   0.0000  12.0000 15.90815360    13
CTC2_L_00003017-04
1 44809U 25816GJ  26070.40841435  .00000000  00000+0  00000-0 0  9990
2 44809  85.0000 192.0000 0000000   0.0000 102.0000 15.90815360    14
CTC2_L_00003018-01
1 44810U 25943SY  26070.40841435  .00000000  00000+0  00000-0 0  9993
2 44810  85.0000 204.0000 0000000   0.0000 204.0000 15.90815360    13
CTC2_L_00003018-02
1 44811U 25881WX  26070.40841435  .00000000  00000+0  00000-0 0  9995
2 44811  85.0000 204.0000 0000000   0.0000 294.0000 15.90815360    13
CTC2_L_00003018-03
1 44812U 25616CT  26070.40841435  .00000000  00000+0  00000-0 0  9992
2 44812  85.0000 204.0000 0000000   0.0000  24.0000 15.90815360    15
CTC2_L_00003018-04
1 44813U 24656ZM  26070.40841435  .00000000  00000+0  00000-0 0  9996
2 44813  85.0000 204.0000 0000000   0.0000 114.0000 15.90815360    16
CTC2_L_00003019-01
1 44814U 25679MU  26070.40841435  .00000000  00000+0  00000-0 0  9993
2 44814  85.0000 216.0000 0000000   0.0000 216.0000 15.90815360    13
CTC2_L_00003019-02
1 44815U 26300YN  26070.40841435  .00000000  00000+0  00000-0 0  9996
2 44815  85.0000 216.0000 0000000   0.0000 306.0000 15.90815360    14
CTC2_L_00003019-03
1 44816U 26396BS  26070.40841435  .00000000  00000+0  00000-0 0  9992
2 44816  85.0000 216.0000 0000000   0.0000  36.0000 15.90815360    15
CTC2_L_00003019-04
1 44817U 23144HR  26070.40841435  .00000000  00000+0  00000-0 0  9991
2 44817  85.0000 216.0000 0000000   0.0000 126.0000 15.90815360    16
CTC2_L_00003020-01
1 44818U 23997IW  26070.40841435  .00000000  00000+0  00000-0 0  9998
2 44818  85.0000 228.0000 0000000   0.0000 228.0000 15.90815360    13
CTC2_L_00003020-02
1 44819U 22792OT  26070.40841435  .00000000  00000+0  00000-0 0  9991
2 44819  85.0000 228.0000 0000000   0.0000 318.0000 15.90815360    14
CTC2_L_00003020-03
1 44820U 26499GR  26070.40841435  .00000000  00000+0  00000-0 0  9991
2 44820  85.0000 228.0000 0000000   0.0000  48.0000 15.90815360    16
CTC2_L_00003020-04
1 44821U 22795Y   26070.40841435  .00000000  00000+0  00000-0 0  9997
2 44821  85.0000 228.0000 0000000   0.0000 138.0000 15.90815360    17
CTC2_L_00003021-01
1 44822U 22882VM  26070.40841435  .00000000  00000+0  00000-0 0  9995
2 44822  85.0000 240.0000 0000000   0.0000 240.0000 15.90815360    16
CTC2_L_00003021-02
1 44823U 23052YE  26070.40841435  .00000000  00000+0  00000-0 0  9996
2 44823  85.0000 240.0000 0000000   0.0000 330.0000 15.90815360    17
CTC2_L_00003021-03
1 44824U 22721JK  26070.40841435  .00000000  00000+0  00000-0 0  9999
2 44824  85.0000 240.0000 0000000   0.0000  60.0000 15.90815360    18
CTC2_L_00003021-04
1 44825U 26874ZS  26070.40841435  .00000000  00000+0  00000-0 0  9993
2 44825  85.0000 240.0000 0000000   0.0000 150.0000 15.90815360    19
CTC2_L_00003022-01
1 44826U 22890ZP  26070.40841435  .00000000  00000+0  00000-0 0  9998
2 44826  85.0000 252.0000 0000000   0.0000 252.0000 15.90815360    16
CTC2_L_00003022-02
1 44827U 25412IO  26070.40841435  .00000000  00000+0  00000-0 0  9992
2 44827  85.0000 252.0000 0000000   0.0000 342.0000 15.90815360    17
CTC2_L_00003022-03
1 44828U 25346UH  26070.40841435  .00000000  00000+0  00000-0 0  9999
2 44828  85.0000 252.0000 0000000   0.0000  72.0000 15.90815360    18
CTC2_L_00003022-04
1 44829U 25850SK  26070.40841435  .00000000  00000+0  00000-0 0  9990
2 44829  85.0000 252.0000 0000000   0.0000 162.0000 15.90815360    19
CTC2_L_00003023-01
1 44830U 26007VU  26070.40841435  .00000000  00000+0  00000-0 0  9997
2 44830  85.0000 264.0000 0000000   0.0000 264.0000 15.90815360    17
CTC2_L_00003023-02
1 44831U 23353DK  26070.40841435  .00000000  00000+0  00000-0 0  9999
2 44831  85.0000 264.0000 0000000   0.0000 354.0000 15.90815360    18
CTC2_L_00003023-03
1 44832U 22237ME  26070.40841435  .00000000  00000+0  00000-0 0  9990
2 44832  85.0000 264.0000 0000000   0.0000  84.0000 15.90815360    19
CTC2_L_00003023-04
1 44833U 25386FW  26070.40841435  .00000000  00000+0  00000-0 0  9999
2 44833  85.0000 264.0000 0000000   0.0000 174.0000 15.90815360    10
CTC2_L_00003024-01
1 44834U 24708WX  26070.40841435  .00000000  00000+0  00000-0 0  9997
2 44834  85.0000 276.0000 0000000   0.0000 276.0000 15.90815360    17
CTC2_L_00003024-02
1 44835U 25749H   26070.40841435  .00000000  00000+0  00000-0 0  9994
2 44835  85.0000 276.0000 0000000   0.0000   6.0000 15.90815360    19
CTC2_L_00003024-03
1 44836U 23209BO  26070.40841435  .00000000  00000+0  00000-0 0  9994
2 44836  85.0000 276.0000 0000000   0.0000  96.0000 15.90815360    19
CTC2_L_00003024-04
1 44837U 24287FY  26070.40841435  .00000000  00000+0  00000-0 0  9992
2 44837  85.0000 276.0000 0000000   0.0000 186.0000 15.90815360    10
CTC2_L_00003025-01
1 44838U 24316QM  26070.40841435  .00000000  00000+0  00000-0 0  9996
2 44838  85.0000 288.0000 0000000   0.0000 288.0000 15.90815360    17
CTC2_L_00003025-02
1 44839U 24483UU  26070.40841435  .00000000  00000+0  00000-0 0  9992
2 44839  85.0000 288.0000 0000000   0.0000  18.0000 15.90815360    19
CTC2_L_00003025-03
1 44840U 25594KO  26070.40841435  .00000000  00000+0  00000-0 0  9998
2 44840  85.0000 288.0000 0000000   0.0000 108.0000 15.90815360    11
CTC2_L_00003025-04
1 44841U 23152WQ  26070.40841435  .00000000  00000+0  00000-0 0  9997
2 44841  85.0000 288.0000 0000000   0.0000 198.0000 15.90815360    11
CTC2_L_00003026-01
1 44842U 24186CB  26070.40841435  .00000000  00000+0  00000-0 0  9996
2 44842  85.0000 300.0000 0000000   0.0000 300.0000 15.90815360    12
CTC2_L_00003026-02
1 44843U 22999MS  26070.40841435  .00000000  00000+0  00000-0 0  9997
2 44843  85.0000 300.0000 0000000   0.0000  30.0000 15.90815360    13
CTC2_L_00003026-03
1 44844U 24321IH  26070.40841435  .00000000  00000+0  00000-0 0  9999
2 44844  85.0000 300.0000 0000000   0.0000 120.0000 15.90815360    14
CTC2_L_00003026-04
1 44845U 25137MT  26070.40841435  .00000000  00000+0  00000-0 0  9996
2 44845  85.0000 300.0000 0000000   0.0000 210.0000 15.90815360    15
CTC2_L_00003027-01
1 44846U 25524GR  26070.40841435  .00000000  00000+0  00000-0 0  9997
2 44846  85.0000 312.0000 0000000   0.0000 312.0000 15.90815360    12
CTC2_L_00003027-02
1 44847U 25830AP  26070.40841435  .00000000  00000+0  00000-0 0  9998
2 44847  85.0000 312.0000 0000000   0.0000  42.0000 15.90815360    13
CTC2_L_00003027-03
1 44848U 25292ES  26070.40841435  .00000000  00000+0  00000-0 0  9991
2 44848  85.0000 312.0000 0000000   0.0000 132.0000 15.90815360    14
CTC2_L_00003027-04
1 44849U 22210XB  26070.40841435  .00000000  00000+0  00000-0 0  9999
2 44849  85.0000 312.0000 0000000   0.0000 222.0000 15.90815360    15
CTC2_L_00003028-01
1 44850U 25370VN  26070.40841435  .00000000  00000+0  00000-0 0  9991
2 44850  85.0000 324.0000 0000000   0.0000 324.0000 15.90815360    13
CTC2_L_00003028-02
1 44851U 25188BZ  26070.40841435  .00000000  00000+0  00000-0 0  9999
2 44851  85.0000 324.0000 0000000   0.0000  54.0000 15.90815360    14
CTC2_L_00003028-03
1 44852U 25596A   26070.40841435  .00000000  00000+0  00000-0 0  9993
2 44852  85.0000 324.0000 0000000   0.0000 144.0000 15.90815360    15
CTC2_L_00003028-04
1 44853U 23775SH  26070.40841435  .00000000  00000+0  00000-0 0  9991
2 44853  85.0000 324.0000 0000000   0.0000 234.0000 15.90815360    16
CTC2_L_00003029-01
1 44854U 23603CF  26070.40841435  .00000000  00000+0  00000-0 0  9992
2 44854  85.0000 336.0000 0000000   0.0000 336.0000 15.90815360    13
CTC2_L_00003029-02
1 44855U 23466AD  26070.40841435  .00000000  00000+0  00000-0 0  9990
2 44855  85.0000 336.0000 0000000   0.0000  66.0000 15.90815360    14
CTC2_L_00003029-03
1 44856U 26589OM  26070.40841435  .00000000  00000+0  00000-0 0  9990
2 44856  85.0000 336.0000 0000000   0.0000 156.0000 15.90815360    15
CTC2_L_00003029-04
1 44857U 22192TV  26070.40841435  .00000000  00000+0  00000-0 0  9997
2 44857  85.0000 336.0000 0000000   0.0000 246.0000 15.90815360    16
CTC2_L_00003030-01
1 44858U 22644DM  26070.40841435  .00000000  00000+0  00000-0 0  9990
2 44858  85.0000 348.0000 0000000   0.0000 348.0000 15.90815360    13
CTC2_L_00003030-02
1 44859U 25388MF  26070.40841435  .00000000  00000+0  00000-0 0  9999
2 44859  85.0000 348.0000 0000000   0.0000  78.0000 15.90815360    14
CTC2_L_00003030-03
1 44860U 26348NZ  26070.40841435  .00000000  00000+0  00000-0 0  9998
2 44860  85.0000 348.0000 0000000   0.0000 168.0000 15.90815360    16
CTC2_L_00003030-04
1 44861U 25161QB  26070.40841435  .00000000  00000+0  00000-0 0  9991
2 44861  85.0000 348.0000 0000000   0.0000 258.0000 15.90815360    17
